start=new Date('2021-12-03T00:00:00.000Z').valueOf();
sats=[{"BSTAR":"0.00041857000000","TLE_LINE1":"1 46067U 20055AS  21336.48608010  .00005961  00000-0  41857-3 0  9996","GP_ID":"190941812","EPOCH":"2021-12-02T11:39:57.320640","SEMIMAJOR_AXIS":"6925.305","MEAN_MOTION_DOT":"0.00005961","REV_AT_EPOCH":"7445","SITE":"AFETR","OBJECT_TYPE":"PAYLOAD","CLASSIFICATION_TYPE":"U","ECCENTRICITY":"0.00020050","MEAN_ANOMALY":"294.2020","DECAY_DATE":null,"PERIOD":"95.591","COUNTRY_CODE":"US","MEAN_ELEMENT_THEORY":"SGP4","LAUNCH_DATE":"2020-08-07","PERIAPSIS":"545.782","ARG_OF_PERICENTER":"65.9178","ELEMENT_SET_NO":"999","RCS_SIZE":"LARGE","TLE_LINE2":"2 46067  53.0536 251.6718 0002005  65.9178 294.2020 15.06414133 74457","REF_FRAME":"TEME","NORAD_CAT_ID":"46067","OBJECT_NAME":"STARLINK-1529","RA_OF_ASC_NODE":"251.6718","MEAN_MOTION":"15.06414133","OBJECT_ID":"2020-055AS","APOAPSIS":"548.559","EPHEMERIS_TYPE":"0","TIME_SYSTEM":"UTC","MEAN_MOTION_DDOT":"0.0000000000000","INCLINATION":"53.0536","FILE":"3230859","CENTER_NAME":"EARTH"},{"FILE":"3230859","CENTER_NAME":"EARTH","TIME_SYSTEM":"UTC","INCLINATION":"53.0529","MEAN_MOTION_DDOT":"0.0000000000000","APOAPSIS":"548.636","EPHEMERIS_TYPE":"0","OBJECT_ID":"2020-055AT","REF_FRAME":"TEME","OBJECT_NAME":"STARLINK-1532","NORAD_CAT_ID":"46068","RA_OF_ASC_NODE":"251.6089","MEAN_MOTION":"15.06404897","PERIAPSIS":"545.761","ARG_OF_PERICENTER":"64.9550","ELEMENT_SET_NO":"999","RCS_SIZE":"LARGE","TLE_LINE2":"2 46068  53.0529 251.6089 0002076  64.9550 295.1654 15.06404897 74451","LAUNCH_DATE":"2020-08-07","MEAN_ELEMENT_THEORY":"SGP4","DECAY_DATE":null,"PERIOD":"95.592","COUNTRY_CODE":"US","MEAN_ANOMALY":"295.1654","CLASSIFICATION_TYPE":"U","ECCENTRICITY":"0.00020760","OBJECT_TYPE":"PAYLOAD","MEAN_MOTION_DOT":"0.00003156","SEMIMAJOR_AXIS":"6925.334","EPOCH":"2021-12-02T11:55:52.686048","SITE":"AFETR","REV_AT_EPOCH":"7445","TLE_LINE1":"1 46068U 20055AT  21336.49713757  .00003156  00000-0  23067-3 0  9990","GP_ID":"190942062","BSTAR":"0.00023067000000"},{"BSTAR":"0.00009720100000","GP_ID":"190942814","TLE_LINE1":"1 46069U 20055AU  21336.18014741  .00001167  00000-0  97201-4 0  9996","SITE":"AFETR","REV_AT_EPOCH":"7441","SEMIMAJOR_AXIS":"6925.333","EPOCH":"2021-12-02T04:19:24.736224","MEAN_MOTION_DOT":"0.00001167","OBJECT_TYPE":"PAYLOAD","ECCENTRICITY":"0.00020940","CLASSIFICATION_TYPE":"U","MEAN_ANOMALY":"294.1585","COUNTRY_CODE":"US","PERIOD":"95.592","DECAY_DATE":null,"MEAN_ELEMENT_THEORY":"SGP4","LAUNCH_DATE":"2020-08-07","TLE_LINE2":"2 46069  53.0536 253.0385 0002094  65.9623 294.1585 15.06404961 74417","RCS_SIZE":"LARGE","ARG_OF_PERICENTER":"65.9623","ELEMENT_SET_NO":"999","PERIAPSIS":"545.748","RA_OF_ASC_NODE":"253.0385","MEAN_MOTION":"15.06404961","OBJECT_NAME":"STARLINK-1533","NORAD_CAT_ID":"46069","REF_FRAME":"TEME","OBJECT_ID":"2020-055AU","EPHEMERIS_TYPE":"0","APOAPSIS":"548.649","MEAN_MOTION_DDOT":"0.0000000000000","INCLINATION":"53.0536","TIME_SYSTEM":"UTC","CENTER_NAME":"EARTH","FILE":"3230859"},{"BSTAR":"0.00008201600000","GP_ID":"190943565","TLE_LINE1":"1 46070U 20055AV  21336.46027520  .00000940  00000-0  82016-4 0  9994","SITE":"AFETR","REV_AT_EPOCH":"7445","EPOCH":"2021-12-02T11:02:47.777280","SEMIMAJOR_AXIS":"6925.344","MEAN_MOTION_DOT":"0.00000940","OBJECT_TYPE":"PAYLOAD","CLASSIFICATION_TYPE":"U","ECCENTRICITY":"0.00019860","MEAN_ANOMALY":"295.7911","DECAY_DATE":null,"COUNTRY_CODE":"US","PERIOD":"95.592","MEAN_ELEMENT_THEORY":"SGP4","LAUNCH_DATE":"2020-08-07","ELEMENT_SET_NO":"999","ARG_OF_PERICENTER":"64.3283","PERIAPSIS":"545.833","TLE_LINE2":"2 46070  53.0539 251.7792 0001986  64.3283 295.7911 15.06401551 74459","RCS_SIZE":"LARGE","OBJECT_NAME":"STARLINK-1536","NORAD_CAT_ID":"46070","REF_FRAME":"TEME","MEAN_MOTION":"15.06401551","RA_OF_ASC_NODE":"251.7792","OBJECT_ID":"2020-055AV","APOAPSIS":"548.584","EPHEMERIS_TYPE":"0","TIME_SYSTEM":"UTC","INCLINATION":"53.0539","MEAN_MOTION_DDOT":"0.0000000000000","FILE":"3230859","CENTER_NAME":"EARTH"},{"INCLINATION":"53.0533","MEAN_MOTION_DDOT":"0.0000000000000","TIME_SYSTEM":"UTC","CENTER_NAME":"EARTH","FILE":"3231141","EPHEMERIS_TYPE":"0","APOAPSIS":"548.553","MEAN_MOTION":"15.06394360","RA_OF_ASC_NODE":"250.5164","REF_FRAME":"TEME","OBJECT_NAME":"STARLINK-1538","NORAD_CAT_ID":"46071","OBJECT_ID":"2020-055AW","MEAN_ELEMENT_THEORY":"SGP4","LAUNCH_DATE":"2020-08-07","RCS_SIZE":"LARGE","TLE_LINE2":"2 46071  53.0533 250.5164 0001909  69.6236 290.4958 15.06394360 73951","PERIAPSIS":"545.909","ELEMENT_SET_NO":"999","ARG_OF_PERICENTER":"69.6236","MEAN_ANOMALY":"290.4958","PERIOD":"95.592","COUNTRY_CODE":"US","DECAY_DATE":null,"ECCENTRICITY":"0.00019090","CLASSIFICATION_TYPE":"U","EPOCH":"2021-12-02T17:51:30.422304","SEMIMAJOR_AXIS":"6925.366","MEAN_MOTION_DOT":"0.00002235","REV_AT_EPOCH":"7395","SITE":"AFETR","OBJECT_TYPE":"PAYLOAD","BSTAR":"0.00016895000000","TLE_LINE1":"1 46071U 20055AW  21336.74410211  .00002235  00000-0  16895-3 0  9999","GP_ID":"190952771"},{"LAUNCH_DATE":"2020-08-07","MEAN_ELEMENT_THEORY":"SGP4","TLE_LINE2":"2 46072  53.0546 251.5758 0002117  62.6581 297.4623 15.06403147 73910","RCS_SIZE":"LARGE","ELEMENT_SET_NO":"999","ARG_OF_PERICENTER":"62.6581","PERIAPSIS":"545.738","RA_OF_ASC_NODE":"251.5758","MEAN_MOTION":"15.06403147","NORAD_CAT_ID":"46072","OBJECT_NAME":"STARLINK-1539","REF_FRAME":"TEME","OBJECT_ID":"2020-055AX","EPHEMERIS_TYPE":"0","APOAPSIS":"548.670","INCLINATION":"53.0546","MEAN_MOTION_DDOT":"0.0000000000000","TIME_SYSTEM":"UTC","CENTER_NAME":"EARTH","FILE":"3230981","BSTAR":"0.00006517800000","GP_ID":"190948495","TLE_LINE1":"1 46072U 20055AX  21336.50356765  .00000689  00000-0  65178-4 0  9997","REV_AT_EPOCH":"7391","SITE":"AFETR","SEMIMAJOR_AXIS":"6925.339","MEAN_MOTION_DOT":"0.00000689","EPOCH":"2021-12-02T12:05:08.244960","OBJECT_TYPE":"PAYLOAD","CLASSIFICATION_TYPE":"U","ECCENTRICITY":"0.00021170","MEAN_ANOMALY":"297.4623","COUNTRY_CODE":"US","PERIOD":"95.592","DECAY_DATE":null},{"BSTAR":"-0.00008428700000","TLE_LINE1":"1 46073U 20055AY  21336.05482700 -.00001537  00000-0 -84287-4 0  9994","GP_ID":"190943315","EPOCH":"2021-12-02T01:18:57.052800","SEMIMAJOR_AXIS":"6925.327","MEAN_MOTION_DOT":"-0.00001537","SITE":"AFETR","REV_AT_EPOCH":"7438","OBJECT_TYPE":"PAYLOAD","CLASSIFICATION_TYPE":"U","ECCENTRICITY":"0.00020770","MEAN_ANOMALY":"299.3207","PERIOD":"95.592","COUNTRY_CODE":"US","DECAY_DATE":null,"LAUNCH_DATE":"2020-08-07","MEAN_ELEMENT_THEORY":"SGP4","RCS_SIZE":"LARGE","TLE_LINE2":"2 46073  53.0542 253.6126 0002077  60.7990 299.3207 15.06406952 74385","PERIAPSIS":"545.754","ARG_OF_PERICENTER":"60.7990","ELEMENT_SET_NO":"999","RA_OF_ASC_NODE":"253.6126","MEAN_MOTION":"15.06406952","REF_FRAME":"TEME","NORAD_CAT_ID":"46073","OBJECT_NAME":"STARLINK-1542","OBJECT_ID":"2020-055AY","EPHEMERIS_TYPE":"0","APOAPSIS":"548.631","INCLINATION":"53.0542","MEAN_MOTION_DDOT":"0.0000000000000","TIME_SYSTEM":"UTC","CENTER_NAME":"EARTH","FILE":"3230859"},{"INCLINATION":"53.0537","MEAN_MOTION_DDOT":"0.0000000000000","TIME_SYSTEM":"UTC","CENTER_NAME":"EARTH","FILE":"3230859","EPHEMERIS_TYPE":"0","APOAPSIS":"548.414","RA_OF_ASC_NODE":"251.5851","MEAN_MOTION":"15.06394401","OBJECT_NAME":"STARLINK-1549","NORAD_CAT_ID":"46074","REF_FRAME":"TEME","OBJECT_ID":"2020-055AZ","LAUNCH_DATE":"2020-08-07","MEAN_ELEMENT_THEORY":"SGP4","TLE_LINE2":"2 46074  53.0537 251.5851 0001708  59.4681 300.6476 15.06394401 74440","RCS_SIZE":"LARGE","ARG_OF_PERICENTER":"59.4681","ELEMENT_SET_NO":"999","PERIAPSIS":"546.048","MEAN_ANOMALY":"300.6476","COUNTRY_CODE":"US","PERIOD":"95.592","DECAY_DATE":null,"CLASSIFICATION_TYPE":"U","ECCENTRICITY":"0.00017080","REV_AT_EPOCH":"7444","SITE":"AFETR","MEAN_MOTION_DOT":"0.00000855","SEMIMAJOR_AXIS":"6925.366","EPOCH":"2021-12-02T12:06:30.380256","OBJECT_TYPE":"PAYLOAD","BSTAR":"0.00007631900000","GP_ID":"190943065","TLE_LINE1":"1 46074U 20055AZ  21336.50451829  .00000855  00000-0  76319-4 0  9990"},{"BSTAR":"0.00020829000000","TLE_LINE1":"1 46075U 20055BA  21336.46396522  .00002822  00000-0  20829-3 0  9994","GP_ID":"190941813","EPOCH":"2021-12-02T11:08:06.595008","SEMIMAJOR_AXIS":"6925.336","MEAN_MOTION_DOT":"0.00002822","REV_AT_EPOCH":"7444","SITE":"AFETR","OBJECT_TYPE":"PAYLOAD","CLASSIFICATION_TYPE":"U","ECCENTRICITY":"0.00020750","MEAN_ANOMALY":"291.3019","PERIOD":"95.592","COUNTRY_CODE":"US","DECAY_DATE":null,"MEAN_ELEMENT_THEORY":"SGP4","LAUNCH_DATE":"2020-08-07","RCS_SIZE":"LARGE","TLE_LINE2":"2 46075  53.0529 251.7757 0002075  68.8191 291.3019 15.06404151 74440","PERIAPSIS":"545.764","ELEMENT_SET_NO":"999","ARG_OF_PERICENTER":"68.8191","RA_OF_ASC_NODE":"251.7757","MEAN_MOTION":"15.06404151","REF_FRAME":"TEME","NORAD_CAT_ID":"46075","OBJECT_NAME":"STARLINK-1551","OBJECT_ID":"2020-055BA","EPHEMERIS_TYPE":"0","APOAPSIS":"548.638","MEAN_MOTION_DDOT":"0.0000000000000","INCLINATION":"53.0529","TIME_SYSTEM":"UTC","CENTER_NAME":"EARTH","FILE":"3230859"},{"GP_ID":"190948883","TLE_LINE1":"1 46076U 20055BB  21336.75517018  .00000700  00000-0  65940-4 0  9999","BSTAR":"0.00006594000000","OBJECT_TYPE":"PAYLOAD","REV_AT_EPOCH":"7395","SITE":"AFETR","SEMIMAJOR_AXIS":"6925.372","EPOCH":"2021-12-02T18:07:26.703552","MEAN_MOTION_DOT":"0.00000700","CLASSIFICATION_TYPE":"U","ECCENTRICITY":"0.00019020","COUNTRY_CODE":"US","PERIOD":"95.593","DECAY_DATE":null,"MEAN_ANOMALY":"303.9603","TLE_LINE2":"2 46076  53.0538 250.4669 0001902  56.1566 303.9603 15.06392211 73950","RCS_SIZE":"LARGE","ELEMENT_SET_NO":"999","ARG_OF_PERICENTER":"56.1566","PERIAPSIS":"545.920","MEAN_ELEMENT_THEORY":"SGP4","LAUNCH_DATE":"2020-08-07","OBJECT_ID":"2020-055BB","RA_OF_ASC_NODE":"250.4669","MEAN_MOTION":"15.06392211","NORAD_CAT_ID":"46076","OBJECT_NAME":"STARLINK-1552","REF_FRAME":"TEME","EPHEMERIS_TYPE":"0","APOAPSIS":"548.555","CENTER_NAME":"EARTH","FILE":"3230973","INCLINATION":"53.0538","MEAN_MOTION_DDOT":"0.0000000000000","TIME_SYSTEM":"UTC"}];
